[{"OBJECT_NAME":"STARLINK-32809","OBJECT_ID":"2025-019W","EPOCH":"2026-03-09T02:18:04.401792","MEAN_MOTION":15.27604303,"ECCENTRICITY":8.499e-5,"INCLINATION":42.9999,"RA_OF_ASC_NODE":92.0262,"ARG_OF_PERICENTER":278.1182,"MEAN_ANOMALY":81.9574,"EPHEMERIS_TYPE":0,"CLASSIFICATION_TYPE":"U","NORAD_CAT_ID":62849,"ELEMENT_SET_NO":999,"REV_AT_EPOCH":6216,"BSTAR":0.0010160125,"MEAN_MOTION_DOT":0.00027823,"MEAN_MOTION_DDOT":0},{"OBJECT_NAME":"COSMOS 2588","OBJECT_ID":"2025-109A","EPOCH":"2026-03-09T19:28:59.107008","MEAN_MOTION":15.29122656,"ECCENTRICITY":0.0005019,"INCLINATION":72.9704,"RA_OF_ASC_NODE":73.5401,"ARG_OF_PERICENTER":308.678,"MEAN_ANOMALY":51.3966,"EPHEMERIS_TYPE":0,"CLASSIFICATION_TYPE":"U","NORAD_CAT_ID":64095,"ELEMENT_SET_NO":999,"REV_AT_EPOCH":4442,"BSTAR":0.00032611,"MEAN_MOTION_DOT":9.169e-5,"MEAN_MOTION_DDOT":0}]
